[{"OBJECT_NAME":"SINOD-D 3","OBJECT_ID":"2015-058P","EPOCH":"2026-03-09T19:29:37.516128","MEAN_MOTION":14.93212807,"ECCENTRICITY":0.01185207,"INCLINATION":64.7724,"RA_OF_ASC_NODE":225.9436,"ARG_OF_PERICENTER":98.0775,"MEAN_ANOMALY":263.3804,"EPHEMERIS_TYPE":0,"CLASSIFICATION_TYPE":"U","NORAD_CAT_ID":40977,"ELEMENT_SET_NO":999,"REV_AT_EPOCH":9991,"BSTAR":0.0005253062,"MEAN_MOTION_DOT":6.149e-5,"MEAN_MOTION_DDOT":0},{"OBJECT_NAME":"STARLINK-5089","OBJECT_ID":"2023-046BJ","EPOCH":"2026-03-09T10:29:20.263776","MEAN_MOTION":15.03010147,"ECCENTRICITY":0.00015953,"INCLINATION":43.0025,"RA_OF_ASC_NODE":109.142,"ARG_OF_PERICENTER":212.4436,"MEAN_ANOMALY":147.6309,"EPHEMERIS_TYPE":0,"CLASSIFICATION_TYPE":"U","NORAD_CAT_ID":56148,"ELEMENT_SET_NO":999,"REV_AT_EPOCH":16261,"BSTAR":0.0043155031,"MEAN_MOTION_DOT":0.00059331,"MEAN_MOTION_DDOT":0}]
